HAWK-5A                 
1 52757U 22057AB  26169.26925112  .00014175  00000+0  24203-3 0  9995
2 52757  97.6612 328.1861 0005544  75.7215 284.4652 15.51423111226514
HAWK-6B                 
1 55324U 23011A   26168.97000212  .00003968  00000+0  17363-3 0  9998
2 55324  40.4998 347.5057 0002229   5.8696 354.2139 15.22939898187969
HAWK-6C                 
1 55326U 23011C   26168.83818852  .00003596  00000+0  15816-3 0  9990
2 55326  40.4990 345.1140 0003194 354.0294   6.0477 15.22935258187957
HAWK-6A                 
1 55327U 23011D   26168.96939393  .00003956  00000+0  17315-3 0  9995
2 55327  40.4999 345.9723 0002846 351.1197   8.9562 15.22937888187974
HAWK-7A                 
1 56191U 23054P   26169.22411822  .00004308  00000+0  16342-3 0  9995
2 56191  97.2698  56.5349 0004262  55.1224 305.0416 15.27369198177184
HAWK-7B                 
1 56193U 23054R   26169.22403574  .00004449  00000+0  16870-3 0  9994
2 56193  97.2723  54.7991 0003690  66.9768 293.1860 15.27367458177182
HAWK-7C                 
1 56200U 23054Y   26169.22392347  .00004337  00000+0  16453-3 0  9991
2 56200  97.2700  55.5675 0003627  58.5786 301.5808 15.27368849177182
