OBJECT_NAME,OBJECT_ID,EPOCH,MEAN_MOTION,ECCENTRICITY,INCLINATION,RA_OF_ASC_NODE,ARG_OF_PERICENTER,MEAN_ANOMALY,EPHEMERIS_TYPE,CLASSIFICATION_TYPE,NORAD_CAT_ID,ELEMENT_SET_NO,REV_AT_EPOCH,BSTAR,MEAN_MOTION_DOT,MEAN_MOTION_DDOT
HAWK-5A,2022-057AB,2026-06-18T06:27:43.296768,15.51423111,.0005544,97.6612,328.1861,75.7215,284.4652,0,U,52757,999,22651,.24203458E-3,.14175E-3,0
HAWK-6B,2023-011A,2026-06-17T23:16:48.183168,15.22939898,.00022298,40.4998,347.5057,5.8696,354.2139,0,U,55324,999,18796,.17362677E-3,.3968E-4,0
HAWK-6C,2023-011C,2026-06-17T20:06:59.488128,15.22935258,.00031946,40.4990,345.1140,354.0294,6.0477,0,U,55326,999,18795,.1581646E-3,.3596E-4,0
HAWK-6A,2023-011D,2026-06-17T23:15:55.635552,15.22937888,.00028463,40.4999,345.9723,351.1197,8.9562,0,U,55327,999,18797,.17314762E-3,.3956E-4,0
HAWK-7A,2023-054P,2026-06-18T05:22:43.814208,15.27369198,.00042624,97.2698,56.5349,55.1224,305.0416,0,U,56191,999,17718,.16341577E-3,.4308E-4,0
HAWK-7B,2023-054R,2026-06-18T05:22:36.687936,15.27367458,.00036906,97.2723,54.7991,66.9768,293.1860,0,U,56193,999,17718,.16870487E-3,.4449E-4,0
HAWK-7C,2023-054Y,2026-06-18T05:22:26.987808,15.27368849,.00036275,97.2700,55.5675,58.5786,301.5808,0,U,56200,999,17718,.16453154E-3,.4337E-4,0
